{
  "type": "FeatureCollection",
  "features": [
    {
      "type": "Feature",
      "properties": { "Name": "Cubbon Park PS", "Division": "Central", "Zone": "Central" },
      "geometry": {
        "type": "Polygon",
        "coordinates": [[[77.585, 12.970], [77.600, 12.970], [77.600, 12.985], [77.585, 12.985], [77.585, 12.970]]]
      }
    },
    {
      "type": "Feature",
      "properties": { "Name": "High Grounds PS", "Division": "Central", "Zone": "Central" },
      "geometry": {
        "type": "Polygon",
        "coordinates": [[[77.570, 12.980], [77.585, 12.980], [77.585, 12.995], [77.570, 12.995], [77.570, 12.980]]]
      }
    },
    {
      "type": "Feature",
      "properties": { "Name": "Ashok Nagar PS", "Division": "Central", "Zone": "Central" },
      "geometry": {
        "type": "Polygon",
        "coordinates": [[[77.595, 12.960], [77.610, 12.960], [77.610, 12.975], [77.595, 12.975], [77.595, 12.960]]]
      }
    }
  ]
}
